[{"OBJECT_NAME":"CS1","OBJECT_ID":"2021-088B","EPOCH":"2026-03-09T18:02:30.253920","MEAN_MOTION":15.31848439,"ECCENTRICITY":0.00141292,"INCLINATION":97.3882,"RA_OF_ASC_NODE":132.1684,"ARG_OF_PERICENTER":78.0335,"MEAN_ANOMALY":282.249,"EPHEMERIS_TYPE":0,"CLASSIFICATION_TYPE":"U","NORAD_CAT_ID":49261,"ELEMENT_SET_NO":999,"REV_AT_EPOCH":24518,"BSTAR":0.00051175576,"MEAN_MOTION_DOT":0.00015722,"MEAN_MOTION_DDOT":0},{"OBJECT_NAME":"STARLINK-36080","OBJECT_ID":"2025-278L","EPOCH":"2026-03-09T13:16:27.554880","MEAN_MOTION":15.27585483,"ECCENTRICITY":0.0002022,"INCLINATION":43.0031,"RA_OF_ASC_NODE":115.5345,"ARG_OF_PERICENTER":263.5318,"MEAN_ANOMALY":96.5303,"EPHEMERIS_TYPE":0,"CLASSIFICATION_TYPE":"U","NORAD_CAT_ID":66801,"ELEMENT_SET_NO":999,"REV_AT_EPOCH":1518,"BSTAR":0.00075479,"MEAN_MOTION_DOT":0.0002057,"MEAN_MOTION_DDOT":0}]
